#cP2024  6  1  0 40  0.00000000      15    u+U  IGS14 FIT  AIUB
## 0000      0.00000000    300.00000000   00000   0.0000000000000
+    5   G01G02G03G04G05  0  0  0  0  0  0  0  0  0  0  0
++          0  0  0  0  0  0  0  0  0  0  0  0  0  0  0  0
%c M  cc GPS ccc cccc cccc cccc cccc ccccc ccccc ccccc ccccc
%f  0.0000000  0.000000000  0.00000000000  0.000000000000000
%i    0    0    0    0         0         0         0         0
/* SYNTHETIC REFLECTOMETRY EPHEMERIS - NOT REAL NAVIGATION DATA
*  2024  6  1  0 40  0.00000000
PG01 -16444.780046  -8795.127446   7018.782899      0.000000
PG02   4691.845536  23866.481617   5583.706869      0.000000
PG03 -18502.214193   -588.995143  -7415.277659      0.000000
PG04  15407.052057   8350.953061  12412.981050      0.000000
PG05  -3277.616539   -968.488449  22425.387468      0.000000
*  2024  6  1  0 45  0.00000000
PG01 -17098.551122  -7851.419456   7759.743744      0.000000
PG02   5758.493589  23523.753561   4801.515222      0.000000
PG03 -19179.590997    448.864938  -6839.924305      0.000000
PG04  15527.325620   8108.757265  12264.571530      0.000000
PG05  -3277.616539   -968.488449  22425.387468      0.000000
*  2024  6  1  0 50  0.00000000
PG01 -17684.374714  -6848.678224   8479.705621      0.000000
PG02   6788.504626  23096.498772   4011.860252      0.000000
PG03 -19779.498329   1507.779550  -6218.767802      0.000000
PG04  15421.977840   8321.383046  12394.951869      0.000000
PG05  -3277.616539   -968.488449  22425.387468      0.000000
*  2024  6  1  0 55  0.00000000
PG01 -18199.570333  -5791.491885   9175.374279      0.000000
PG02   7777.165737  22586.672192   3218.355098      0.000000
PG03 -20299.191257   2582.903533  -5554.650309      0.000000
PG04  15102.598205   8927.260401  12759.289460      0.000000
PG05  -3277.616539   -968.488449  22425.387468      0.000000
*  2024  6  1  1  0  0.00000000
PG01 -18641.780654  -4684.697690   9843.566621      0.000000
PG02   8719.953213  21996.606581   2424.630515      0.000000
PG03 -20736.291881   3669.317558  -4850.610555      0.000000
PG04  14620.978443   9752.101679  13237.779826      0.000000
PG05  -3277.616539   -968.488449  22425.387468      0.000000
*  2024  6  1  1  5  0.00000000
PG01 -19008.982304  -3533.359879  10481.225273      0.000000
PG02   9612.553243  21329.001836   1634.318263      0.000000
PG03 -21088.800205   4762.050638  -4109.869939      0.000000
PG04  14092.175160  10563.792329  13688.112077      0.000000
PG05  -3277.616539   -968.488449  22425.387468      0.000000
*  2024  6  1  1 10  0.00000000
PG01 -19299.495117  -2342.746503  11085.432569      0.000000
PG02  10450.881653  20586.912646    851.034487      0.000000
PG03 -21355.103296   5856.102873  -3335.817787      0.000000
PG04  13679.458187  11143.655420  13996.747940      0.000000
PG05  -3277.616539   -968.488449  22425.387468      0.000000
*  2024  6  1  1 15  0.00000000
PG01 -19511.989827  -1118.305322  11653.423904      0.000000
PG02  11231.102596  19773.734506     78.363175      0.000000
PG03 -21533.982659   6946.468328  -2531.995847      0.000000
PG04  13529.862564  11343.948783  14100.722113      0.000000
PG05  -3277.616539   -968.488449  22425.387468      0.000000
*  2024  6  1  1 20  0.00000000
PG01 -19645.494143    134.361121  12182.600380      0.000000
PG02  11949.646100  18893.188188   -680.160245      0.000000
PG03 -21624.619816   8028.157935  -1702.082078      0.000000
PG04  13700.068307  11115.669700  13982.111050      0.000000
PG05  -3277.616539   -968.488449  22425.387468      0.000000
*  2024  6  1  1 25  0.00000000
PG01 -19699.397204   1409.521137  12670.540703      0.000000
PG02  12603.224402  17949.302712  -1421.065080      0.000000
PG03 -21626.600047   9096.222324   -849.873827      0.000000
PG04  14125.716873  10514.756500  13661.503720      0.000000
PG05  -3277.616539   -968.488449  22425.387468      0.000000
*  2024  6  1  1 30  0.00000000
PG01 -19673.452373   2701.340113  13115.012258      0.000000
PG02  13188.846995  16946.396913  -2140.961253      0.000000
PG03 -21539.914293  10145.774469     20.729549      0.000000
PG04  14656.179839   9694.869029  13205.246596      0.000000
PG05  -3277.616539   -968.488449  22425.387468      0.000000
*  2024  6  1  1 35  0.00000000
PG01 -19567.778362   4003.907213  13513.981322      0.000000
PG02  13703.834310  15889.059677  -2836.554811      0.000000
PG03 -21364.959191  11172.012048    905.744525      0.000000
PG04  15129.820060   8877.666676  12729.870674      0.000000
PG05  -3277.616539   -968.488449  22425.387468      0.000000
*  2024  6  1  1 40  0.00000000
PG01 -19382.858692   5311.262424  13865.622378      0.000000
PG02  14145.829975  14782.128949  -3504.663004      0.000000
PG03 -21102.535266  12170.239417   1801.121633      0.000000
PG04  15435.938159   8293.604274  12377.991885      0.000000
PG05  -3277.616539   -968.488449  22425.387468      0.000000
*  2024  6  1  1 45  0.00000000
PG01 -19119.539480   6617.423821  14168.326460      0.000000
PG02  14512.811599  13630.669590  -4142.228841      0.000000
PG03 -20753.843261  13135.889096   2702.763994      0.000000
PG04  15526.315713   8110.829293  12265.848329      0.000000
PG05  -3277.616539   -968.488449  22425.387468      0.000000
*  2024  6  1  1 50  0.00000000
PG01 -18779.025568   7916.414944  14420.708516      0.000000
PG02  14803.100023  12439.950209  -4746.335082      0.000000
PG03 -20320.478648  14064.542666   3606.546060      0.000000
PG04  15391.168325   8382.275303  12432.051082      0.000000
PG05  -3277.616539   -968.488449  22425.387468      0.000000
EOF
