3.04                O                   G                   RINEX VERSION / TYPE
SYNTH-REFL          TEST                20240601 000000 UTC PGM / RUN BY / DATE
 -2248562.1597  5050353.2992  3170398.7354                  APPROX POSITION XYZ
     0                                                      RCV CLOCK OFFS APPL
G    1 S1C                                                  SYS / # / OBS TYPES
  2024     6     1     1     0   0.0000000GPS         TIME OF FIRST OBS
                                                            END OF HEADER
> 2024 06 01 01 00  0.0000000  0  5      
G01        28.952  
G02        30.530  
G03        28.911  
G04        27.587  
G05                
> 2024 06 01 01 00 20.0000000  0  5      
G01        27.697  
G02        30.379  
G03        27.774  
G04        30.358  
G05                
> 2024 06 01 01 00 40.0000000  0  5      
G01        25.951  
G02        27.724  
G03        26.099  
G04        27.612  
G05                
> 2024 06 01 01 01  0.0000000  0  5      
G01        29.698  
G02        30.481  
G03        29.678  
G04        26.991  
G05                
> 2024 06 01 01 01 20.0000000  0  5      
G01        25.957  
G02        30.280  
G03        25.874  
G04        29.878  
G05                
> 2024 06 01 01 01 40.0000000  0  5      
G01        27.667  
G02        27.799  
G03        27.753  
G04        28.770  
G05                
> 2024 06 01 01 02  0.0000000  0  5      
G01        29.252  
G02        30.762  
G03        28.851  
G04        26.280  
G05                
> 2024 06 01 01 02 20.0000000  0  5      
G01        25.590  
G02        30.104  
G03        25.368  
G04        29.374  
G05                
> 2024 06 01 01 02 40.0000000  0  5      
G01        29.316  
G02        27.794  
G03        29.621  
G04        29.726  
G05                
> 2024 06 01 01 03  0.0000000  0  5      
G01        27.872  
G02        31.099  
G03        27.790  
G04        26.715  
G05                
> 2024 06 01 01 03 20.0000000  0  5      
G01        26.721  
G02        29.742  
G03        26.520  
G04        28.124  
G05                
> 2024 06 01 01 03 40.0000000  0  5      
G01        30.176  
G02        27.864  
G03        30.101  
G04        30.414  
G05                
> 2024 06 01 01 04  0.0000000  0  5      
G01        26.334  
G02        31.418  
G03        26.545  
G04        28.217  
G05                
> 2024 06 01 01 04 20.0000000  0  5      
G01        28.501  
G02        29.374  
G03        28.461  
G04        26.772  
G05                
> 2024 06 01 01 04 40.0000000  0  5      
G01        29.408  
G02        28.507  
G03        29.633  
G04        29.421  
G05                
> 2024 06 01 01 05  0.0000000  0  5      
G01        26.100  
G02        31.131  
G03        26.089  
G04        30.067  
G05                
> 2024 06 01 01 05 20.0000000  0  5      
G01        29.734  
G02        28.744  
G03        29.956  
G04        27.783  
G05                
> 2024 06 01 01 05 40.0000000  0  5      
G01        27.909  
G02        28.734  
G03        28.205  
G04        26.837  
G05                
> 2024 06 01 01 06  0.0000000  0  5      
G01        27.098  
G02        31.151  
G03        27.356  
G04        29.973  
G05                
> 2024 06 01 01 06 20.0000000  0  5      
G01        30.179  
G02        28.192  
G03        30.191  
G04        30.517  
G05                
> 2024 06 01 01 06 40.0000000  0  5      
G01        26.723  
G02        29.361  
G03        26.840  
G04        27.918  
G05                
> 2024 06 01 01 07  0.0000000  0  5      
G01        28.777  
G02        30.797  
G03        28.804  
G04        26.839  
G05                
> 2024 06 01 01 07 20.0000000  0  5      
G01        29.867  
G02        27.910  
G03        29.689  
G04        29.289  
G05                
> 2024 06 01 01 07 40.0000000  0  5      
G01        26.399  
G02        30.159  
G03        26.449  
G04        30.687  
G05                
> 2024 06 01 01 08  0.0000000  0  5      
G01        29.844  
G02        30.608  
G03        29.785  
G04        29.249  
G05                
> 2024 06 01 01 08 20.0000000  0  5      
G01        28.448  
G02        27.472  
G03        28.519  
G04        27.711  
G05                
> 2024 06 01 01 08 40.0000000  0  5      
G01        27.265  
G02        30.450  
G03        27.421  
G04        27.217  
G05                
> 2024 06 01 01 09  0.0000000  0  5      
G01        30.441  
G02        29.894  
G03        30.573  
G04        29.145  
G05                
> 2024 06 01 01 09 20.0000000  0  5      
G01        27.092  
G02        27.743  
G03        27.252  
G04        30.355  
G05                
> 2024 06 01 01 09 40.0000000  0  5      
G01        28.910  
G02        30.798  
G03        29.017  
G04        30.452  
G05                
> 2024 06 01 01 10  0.0000000  0  5      
G01        30.086  
G02        29.018  
G03                
G04        29.054  
G05                
> 2024 06 01 01 10 20.0000000  0  5      
G01        26.460  
G02        28.114  
G03                
G04        27.537  
G05                
> 2024 06 01 01 10 40.0000000  0  5      
G01        29.764  
G02        31.175  
G03                
G04        26.713  
G05                
> 2024 06 01 01 11  0.0000000  0  5      
G01        29.177  
G02        28.106  
G03                
G04        27.951  
G05                
> 2024 06 01 01 11 20.0000000  0  5      
G01        27.402  
G02        28.849  
G03                
G04        29.348  
G05                
> 2024 06 01 01 11 40.0000000  0  5      
G01        30.867  
G02        30.813  
G03        30.610  
G04        30.161  
G05                
> 2024 06 01 01 12  0.0000000  0  5      
G01        27.734  
G02        27.717  
G03        27.799  
G04        30.665  
G05                
> 2024 06 01 01 12 20.0000000  0  5      
G01        28.525  
G02        29.833  
G03        28.453  
G04        30.861  
G05                
> 2024 06 01 01 12 40.0000000  0  5      
G01        30.494  
G02        30.352  
G03        30.519  
G04        30.227  
G05                
> 2024 06 01 01 13  0.0000000  0  5      
G01        27.086  
G02        27.286  
G03        27.136  
G04        29.759  
G05                
> 2024 06 01 01 13 20.0000000  0  5      
G01        29.819  
G02        30.384  
G03        29.743  
G04        29.512  
G05                
> 2024 06 01 01 13 40.0000000  0  5      
G01        29.705  
G02        29.084  
G03        29.856  
G04        28.988  
G05                
> 2024 06 01 01 14  0.0000000  0  5      
G01        27.040  
G02        27.807  
G03        27.163  
G04        28.141  
G05                
> 2024 06 01 01 14 20.0000000  0  5      
G01        30.756  
G02        30.870  
G03        30.656  
G04        28.050  
G05                
> 2024 06 01 01 14 40.0000000  0  5      
G01        28.851  
G02        28.042  
G03        28.761  
G04        27.879  
G05                
> 2024 06 01 01 15  0.0000000  0  5      
G01        27.940  
G02        28.983  
G03        28.046  
G04        28.089  
G05                
> 2024 06 01 01 15 20.0000000  0  5      
G01        30.869  
G02        30.579  
G03        30.798  
G04        28.257  
G05                
> 2024 06 01 01 15 40.0000000  0  5      
G01        27.793  
G02        27.235  
G03        27.842  
G04        28.581  
G05                
> 2024 06 01 01 16  0.0000000  0  5      
G01        29.345  
G02        29.863  
G03        29.158  
G04        28.570  
G05                
> 2024 06 01 01 16 20.0000000  0  5      
G01        30.733  
G02        30.009  
G03        30.569  
G04        29.345  
G05                
> 2024 06 01 01 16 40.0000000  0  5      
G01        27.487  
G02        27.260  
G03        27.508  
G04        29.747  
G05                
> 2024 06 01 01 17  0.0000000  0  5      
G01        30.435  
G02        30.330  
G03        30.337  
G04        30.406  
G05                
> 2024 06 01 01 17 20.0000000  0  5      
G01        30.058  
G02        28.926  
G03        30.149  
G04        30.500  
G05                
> 2024 06 01 01 17 40.0000000  0  5      
G01        27.299  
G02        28.003  
G03        27.400  
G04        30.671  
G05                
> 2024 06 01 01 18  0.0000000  0  5      
G01        30.948  
G02        30.404  
G03        30.506  
G04        30.224  
G05                
> 2024 06 01 01 18 20.0000000  0  5      
G01        29.086  
G02        27.346  
G03        29.085  
G04        29.031  
G05                
> 2024 06 01 01 18 40.0000000  0  5      
G01        28.006  
G02        29.038  
G03        28.087  
G04        27.588  
G05                
> 2024 06 01 01 19  0.0000000  0  5      
G01        31.124  
G02        30.074  
G03        31.109  
G04        26.826  
G05                
> 2024 06 01 01 19 20.0000000  0  5      
G01        28.185  
G02        26.610  
G03        28.151  
G04        27.512  
G05                
> 2024 06 01 01 19 40.0000000  0  5      
G01        28.990  
G02        30.126  
G03        29.158  
G04        29.375  
G05                
> 2024 06 01 01 20  0.0000000  0  5      
G01        30.718  
G02        29.004  
G03        30.914  
G04        30.421  
G05                
> 2024 06 01 01 20 20.0000000  0  5      
G01        27.538  
G02        27.178  
G03        27.867  
G04        30.501  
G05                
> 2024 06 01 01 20 40.0000000  0  5      
G01        29.937  
G02        30.424  
G03        30.098  
G04        29.064  
G05                
> 2024 06 01 01 21  0.0000000  0  5      
G01        30.214  
G02        27.286  
G03        30.248  
G04        26.655  
G05                
> 2024 06 01 01 21 20.0000000  0  5      
G01        27.528  
G02        28.694  
G03        27.614  
G04        27.198  
G05                
> 2024 06 01 01 21 40.0000000  0  5      
G01        30.415  
G02        30.208  
G03        30.579  
G04        29.562  
G05                
> 2024 06 01 01 22  0.0000000  0  5      
G01        29.993  
G02        26.456  
G03        30.122  
G04        30.682  
G05                
> 2024 06 01 01 22 20.0000000  0  5      
G01        27.845  
G02        29.536  
G03        27.889  
G04        29.086  
G05                
> 2024 06 01 01 22 40.0000000  0  5      
G01        31.128  
G02        28.616  
G03        30.943  
G04        26.905  
G05                
> 2024 06 01 01 23  0.0000000  0  5      
G01        29.208  
G02        27.045  
G03        29.626  
G04        27.866  
G05                
> 2024 06 01 01 23 20.0000000  0  5      
G01        28.363  
G02        30.285  
G03        27.855  
G04        30.326  
G05                
> 2024 06 01 01 23 40.0000000  0  5      
G01        31.156  
G02        27.180  
G03        31.004  
G04        29.829  
G05                
> 2024 06 01 01 24  0.0000000  0  5      
G01        28.826  
G02        28.286  
G03        28.903  
G04        27.135  
G05                
> 2024 06 01 01 24 20.0000000  0  5      
G01        29.003  
G02        29.738  
G03        28.715  
G04        27.339  
G05                
> 2024 06 01 01 24 40.0000000  0  5      
G01        31.435  
G02        26.215  
G03        31.338  
G04        30.345  
G05                
> 2024 06 01 01 25  0.0000000  0  5      
G01        28.423  
G02        29.450  
G03        28.369  
G04        29.492  
G05                
> 2024 06 01 01 25 20.0000000  0  5      
G01        29.296  
G02        28.717  
G03        29.371  
G04        26.661  
G05                
> 2024 06 01 01 25 40.0000000  0  5      
G01        31.031  
G02        26.335  
G03        31.358  
G04        28.473  
G05                
> 2024 06 01 01 26  0.0000000  0  5      
G01        28.106  
G02        29.921  
G03        27.930  
G04        30.386  
G05                
> 2024 06 01 01 26 20.0000000  0  5      
G01        29.864  
G02        26.645  
G03        29.699  
G04        28.079  
G05                
> 2024 06 01 01 26 40.0000000  0  5      
G01        30.983  
G02        27.638  
G03        30.931  
G04        26.604  
G05                
> 2024 06 01 01 27  0.0000000  0  5      
G01        28.048  
G02        29.347  
G03        28.002  
G04        30.075  
G05                
> 2024 06 01 01 27 20.0000000  0  5      
G01        30.040  
G02        25.507  
G03        30.115  
G04        29.445  
G05                
> 2024 06 01 01 27 40.0000000  0  5      
G01        30.641  
G02        29.298  
G03        31.092  
G04        26.322  
G05                
> 2024 06 01 01 28  0.0000000  0  5      
G01        27.804  
G02        27.787  
G03        27.882  
G04        28.542  
G05                
> 2024 06 01 01 28 20.0000000  0  5      
G01        30.183  
G02        26.351  
G03        30.213  
G04        30.234  
G05                
> 2024 06 01 01 28 40.0000000  0  5      
G01        30.850  
G02        29.721  
G03        30.704  
G04        27.180  
G05                
> 2024 06 01 01 29  0.0000000  0  5      
G01        27.787  
G02        25.936  
G03        27.614  
G04        27.565  
G05                
> 2024 06 01 01 29 20.0000000  0  5      
G01        30.750  
G02        27.909  
G03        30.387  
G04        30.029  
G05                
> 2024 06 01 01 29 40.0000000  0  5      
G01        30.409  
G02        28.996  
G03        30.454  
G04        27.752  
G05                
